[{"OBJECT_NAME":"LEMUR-2-DELOITTE-1","OBJECT_ID":"2025-052BB","EPOCH":"2026-03-09T22:32:58.708896","MEAN_MOTION":14.9679712,"ECCENTRICITY":0.00030112,"INCLINATION":97.7035,"RA_OF_ASC_NODE":323.209,"ARG_OF_PERICENTER":78.3841,"MEAN_ANOMALY":281.7719,"EPHEMERIS_TYPE":0,"CLASSIFICATION_TYPE":"U","NORAD_CAT_ID":63259,"ELEMENT_SET_NO":999,"REV_AT_EPOCH":5384,"BSTAR":0.00044206323,"MEAN_MOTION_DOT":5.004e-5,"MEAN_MOTION_DDOT":0},{"OBJECT_NAME":"STARLINK-34422","OBJECT_ID":"2025-129D","EPOCH":"2026-03-09T09:51:49.978368","MEAN_MOTION":14.98327129,"ECCENTRICITY":0.00033477,"INCLINATION":70.0008,"RA_OF_ASC_NODE":75.2388,"ARG_OF_PERICENTER":269.7857,"MEAN_ANOMALY":90.2919,"EPHEMERIS_TYPE":0,"CLASSIFICATION_TYPE":"U","NORAD_CAT_ID":64415,"ELEMENT_SET_NO":999,"REV_AT_EPOCH":4118,"BSTAR":4.5581945e-5,"MEAN_MOTION_DOT":4.51e-6,"MEAN_MOTION_DDOT":0}]
